NORAD_CAT_ID,OBJECT_NAME,OBJECT_TYPE,EPOCH,MEAN_MOTION,ECCENTRICITY,INCLINATION,RA_OF_ASC_NODE,ARG_OF_PERICENTER,MEAN_ANOMALY,BSTAR,MEAN_MOTION_DOT,MEAN_MOTION_DDOT,TLE_LINE0,TLE_LINE1,TLE_LINE2,SEMIMAJOR_AXIS,PERIOD,APOGEE,PERIGEE,DECAYED
53775.0,STARLINK-4722,PAYLOAD,2023-03-27 10:32:13,15.08838083,9.16e-05,53.2191,74.8104,115.3609,244.7478,0.00011293,1.51e-05,0.0,0 STARLINK-4722,1 53775U 22111C   23086.43904547  .00001510  00000-0  11293-3 0  9995,2 53775  53.2191  74.8104 0000916 115.3609 244.7478 15.08838083 30109,6917.886,95.438,540.385,539.118,0.0
53775.0,STARLINK-4722,PAYLOAD,2023-03-28 10:23:00,15.08851462,0.0001103,53.2182,70.3486,111.3038,248.8072,4.1456e-05,3.72e-06,0.0,0 STARLINK-4722,1 53775U 22111C   23087.43263949  .00000372  00000-0  41456-4 0  9990,2 53775  53.2182  70.3486 0001103 111.3038 248.8072 15.08851462 30251,6917.845,95.437,540.473,538.947,0.0
53775.0,STARLINK-4722,PAYLOAD,2023-03-28 23:06:06,15.08832649,0.0001055,53.2197,67.9705,104.9904,255.1205,-7.0326e-05,-1.407e-05,0.0,0 STARLINK-4722,1 53775U 22111C   23087.96257567 -.00001407  00000-0 -70326-4 0  9997,2 53775  53.2197  67.9705 0001055 104.9904 255.1205 15.08832649 30333,6917.903,95.438,540.498,539.038,0.0
53775.0,STARLINK-4722,PAYLOAD,2023-03-29 05:27:38,15.08839909,9.43e-05,53.2186,66.7832,93.8923,266.2177,1.0672e-05,-1.18e-06,0.0,0 STARLINK-4722,1 53775U 22111C   23088.22752863 -.00000118  00000-0  10672-4 0  9991,2 53775  53.2186  66.7832 0000943  93.8923 266.2177 15.08839909 30372,6917.881,95.438,540.398,539.093,0.0
53775.0,STARLINK-4722,PAYLOAD,2023-03-29 10:13:47,15.08846636,0.0001023,53.219,65.8903,95.1336,264.9773,5.1631e-05,5.34e-06,0.0,0 STARLINK-4722,1 53775U 22111C   23088.42624248  .00000534  00000-0  51631-4 0  9999,2 53775  53.2190  65.8903 0001023  95.1336 264.9773 15.08846636 30405,6917.86,95.437,540.433,539.017,0.0
53775.0,STARLINK-4722,PAYLOAD,2023-03-30 05:18:25,15.08846343,0.000107,53.2178,62.3259,120.19,239.9199,-7.9971e-05,-1.561e-05,0.0,0 STARLINK-4722,1 53775U 22111C   23089.22112861 -.00001561  00000-0 -79971-4 0  9991,2 53775  53.2178  62.3259 0001070 120.1900 239.9199 15.08846343 30527,6917.861,95.437,540.466,538.986,0.0
53775.0,STARLINK-4722,PAYLOAD,2023-03-30 10:04:34,15.08854818,9.79e-05,53.2185,61.4291,113.3229,246.7866,2.2948e-05,7.8e-07,0.0,0 STARLINK-4722,1 53775U 22111C   23089.41983883  .00000078  00000-0  22948-4 0  9994,2 53775  53.2185  61.4291 0000979 113.3229 246.7866 15.08854818 30552,6917.835,95.437,540.377,539.023,0.0
53775.0,STARLINK-4722,PAYLOAD,2023-03-31 01:58:26,15.08837167,0.0001343,53.2172,58.4541,140.9225,219.1865,-2.519e-05,-6.89e-06,0.0,0 STARLINK-4722,1 53775U 22111C   23090.08225187 -.00000689  00000-0 -25190-4 0  9997,2 53775  53.2172  58.4541 0001343 140.9225 219.1865 15.08837167 30652,6917.889,95.438,540.683,538.825,0.0
53775.0,STARLINK-4722,PAYLOAD,2023-03-31 06:44:35,15.0884583,0.0001231,53.2168,57.5625,79.6966,280.4165,5.5405e-05,5.94e-06,0.0,0 STARLINK-4722,1 53775U 22111C   23090.28096582  .00000594  00000-0  55405-4 0  9999,2 53775  53.2168  57.5625 0001231  79.6966 280.4165 15.08845830 30689,6917.863,95.437,540.579,538.876,0.0
53775.0,STARLINK-4722,PAYLOAD,2023-03-31 21:03:04,15.08841169,0.0001413,53.2185,54.8904,79.1129,281.0022,-3.3488e-05,-8.21e-06,0.0,0 STARLINK-4722,1 53775U 22111C   23090.87713101 -.00000821  00000-0 -33488-4 0  9999,2 53775  53.2185  54.8904 0001413  79.1129 281.0022 15.08841169 30776,6917.877,95.437,540.719,538.764,0.0
53775.0,STARLINK-4722,PAYLOAD,2023-04-01 05:00:00,15.08842591,0.0001003,53.219,53.4,87.3113,272.7994,-8.2448e-05,-1.6e-05,0.0,0 STARLINK-4722,1 53775U 22111C   23091.20833444 -.00001600  00000-0 -82448-4 0  9996,2 53775  53.2190  53.4000 0001003  87.3113 272.7994 15.08842591 31634,6917.872,95.437,540.431,539.044,0.0
53775.0,STARLINK-4722,PAYLOAD,2023-04-02 06:26:09,15.0885029,0.0001066,53.2191,48.6429,83.3941,276.7172,8.6983e-05,1.097e-05,0.0,0 STARLINK-4722,1 53775U 22111C   23092.26816515  .00001097  00000-0  86983-4 0  9999,2 53775  53.2191  48.6429 0001066  83.3941 276.7172 15.08850290 30984,6917.849,95.437,540.451,538.976,0.0
53775.0,STARLINK-4722,PAYLOAD,2023-04-03 03:06:11,15.0883706,0.0001184,53.2202,44.7776,82.2383,277.8744,2.1687e-05,5.7e-07,0.0,0 STARLINK-4722,1 53775U 22111C   23093.12929717  .00000057  00000-0  21687-4 0  9999,2 53775  53.2202  44.7776 0001184  82.2383 277.8744 15.08837060 31111,6917.889,95.438,540.573,538.935,0.0
53775.0,STARLINK-4722,PAYLOAD,2023-04-03 06:16:57,15.0884155,0.000118,53.2192,44.182,86.9857,273.1271,7.1284e-05,8.47e-06,0.0,0 STARLINK-4722,1 53775U 22111C   23093.26177264  .00000847  00000-0  71284-4 0  9991,2 53775  53.2192  44.1820 0001180  86.9857 273.1271 15.08841550 31940,6917.876,95.437,540.557,538.924,0.0
53775.0,STARLINK-4722,PAYLOAD,2023-04-04 06:07:43,15.08857112,0.0001264,53.2189,39.7243,106.5489,253.5642,5.9663e-05,6.62e-06,0.0,0 STARLINK-4722,1 53775U 22111C   23094.25536115  .00000662  00000-0  59663-4 0  9997,2 53775  53.2189  39.7243 0001264 106.5489 253.5642 15.08857112 31280,6917.828,95.436,540.567,538.819,0.0
53775.0,STARLINK-4722,PAYLOAD,2023-04-04 20:26:13,15.08832,0.0001249,53.2182,37.0461,100.7736,259.3397,-8.1856e-05,-1.59e-05,0.0,0 STARLINK-4722,1 53775U 22111C   23094.85154303 -.00001590  00000-0 -81856-4 0  9990,2 53775  53.2182  37.0461 0001249 100.7736 259.3397 15.08832000 31370,6917.905,95.438,540.634,538.906,0.0
53775.0,STARLINK-4722,PAYLOAD,2023-04-05 05:58:31,15.08841118,0.0001388,53.2189,35.262,91.7451,268.37,-8.6815e-07,-3.02e-06,0.0,0 STARLINK-4722,1 53775U 22111C   23095.24897561 -.00000302  00000-0 -86815-6 0  9996,2 53775  53.2189  35.2620 0001388  91.7451 268.3700 15.08841118 32246,6917.877,95.437,540.702,538.782,0.0
53775.0,STARLINK-4722,PAYLOAD,2023-04-06 02:38:32,15.08848416,0.0001216,53.2183,31.3996,108.6189,251.4935,-6.7189e-05,-1.357e-05,0.0,0 STARLINK-4722,1 53775U 22111C   23096.11009339 -.00001357  00000-0 -67189-4 0  9993,2 53775  53.2183  31.3996 0001216 108.6189 251.4935 15.08848416 32374,6917.855,95.437,540.561,538.878,0.0
53775.0,STARLINK-4722,PAYLOAD,2023-04-06 20:07:47,15.0882932,0.0001354,53.2193,28.1326,104.3541,255.7601,2.9688e-05,1.84e-06,0.0,0 STARLINK-4722,1 53775U 22111C   23096.83874413  .00000184  00000-0  29688-4 0  9992,2 53775  53.2193  28.1326 0001354 104.3541 255.7601 15.08829320 31676,6917.913,95.438,540.715,538.841,0.0
53775.0,STARLINK-4722,PAYLOAD,2023-04-07 04:04:42,15.08843596,0.0001312,53.2182,26.6423,95.6044,264.5098,-5.3376e-05,-1.137e-05,0.0,0 STARLINK-4722,1 53775U 22111C   23097.16993943 -.00001137  00000-0 -53376-4 0  9991,2 53775  53.2182  26.6423 0001312  95.6044 264.5098 15.08843596 31724,6917.869,95.437,540.642,538.827,0.0
53775.0,STARLINK-4722,PAYLOAD,2023-04-08 03:55:29,15.08844757,0.0001361,53.2189,22.1826,109.4007,250.7133,1.8642e-05,9e-08,0.0,0 STARLINK-4722,1 53775U 22111C   23098.16353793  .00000009  00000-0  18642-4 0  9997,2 53775  53.2189  22.1826 0001361 109.4007 250.7133 15.08844757 32689,6917.866,95.437,540.672,538.789,0.0
53775.0,STARLINK-4722,PAYLOAD,2023-04-09 03:46:17,15.08837659,0.0001279,53.2179,17.7198,86.2972,273.8167,2.3888e-05,9.2e-07,0.0,0 STARLINK-4722,1 53775U 22111C   23099.15714546  .00000092  00000-0  23888-4 0  9994,2 53775  53.2179  17.7198 0001279  86.2972 273.8167 15.08837659 32025,6917.888,95.438,540.637,538.868,0.0
53775.0,STARLINK-4722,PAYLOAD,2023-04-10 02:01:41,15.08844166,0.0001309,53.2186,13.553,89.7631,270.3511,-1.6227e-05,-5.46e-06,0.0,0 STARLINK-4722,1 53775U 22111C   23100.08450381 -.00000546  00000-0 -16227-4 0  9998,2 53775  53.2186  13.5530 0001309  89.7631 270.3511 15.08844166 32971,6917.868,95.437,540.638,538.827,0.0
53775.0,STARLINK-4722,PAYLOAD,2023-04-11 03:27:49,15.08856147,0.0001336,53.2182,8.7979,101.9242,258.19,0.00011493,1.542e-05,0.0,0 STARLINK-4722,1 53775U 22111C   23101.14432807  .00001542  00000-0  11493-3 0  9993,2 53775  53.2182   8.7979 0001336 101.9242 258.1900 15.08856147 33132,6917.831,95.437,540.62,538.772,0.0
53775.0,STARLINK-4722,PAYLOAD,2023-04-12 00:07:52,15.08833457,0.000121,53.2178,4.9327,102.3514,257.7613,-0.00012686,-2.306e-05,0.0,0 STARLINK-4722,1 53775U 22111C   23102.00547240 -.00002306  00000-0 -12686-3 0  9993,2 53775  53.2178   4.9327 0001210 102.3514 257.7613 15.08833457 32459,6917.9,95.438,540.602,538.928,0.0
53775.0,STARLINK-4722,PAYLOAD,2023-04-12 17:37:07,15.08843762,0.0001114,53.218,1.6616,94.4925,265.6195,-0.00014948,-2.666e-05,0.0,0 STARLINK-4722,1 53775U 22111C   23102.73411011 -.00002666  00000-0 -14948-3 0  9991,2 53775  53.2180   1.6616 0001114  94.4925 265.6195 15.08843762 32562,6917.869,95.437,540.505,538.963,0.0
53775.0,STARLINK-4722,PAYLOAD,2023-04-13 03:09:25,15.08850772,0.0001167,53.2178,359.8769,95.548,264.5645,-6.4619e-05,-1.316e-05,0.0,0 STARLINK-4722,1 53775U 22111C   23103.13154105 -.00001316  00000-0 -64619-4 0  9996,2 53775  53.2178 359.8769 0001167  95.5480 264.5645 15.08850772 33436,6917.847,95.437,540.52,538.905,0.0
53775.0,STARLINK-4722,PAYLOAD,2023-04-13 20:38:40,15.08834376,0.0001205,53.2172,356.6025,92.8541,267.2589,6.712e-05,7.8e-06,0.0,0 STARLINK-4722,1 53775U 22111C   23103.86018771  .00000780  00000-0  67120-4 0  9996,2 53775  53.2172 356.6025 0001205  92.8541 267.2589 15.08834376 32732,6917.898,95.438,540.596,538.929,0.0
53775.0,STARLINK-4722,PAYLOAD,2023-04-14 03:00:11,15.08846945,0.0001081,53.2177,355.4164,91.1498,268.9618,0.000163,2.308e-05,0.0,0 STARLINK-4722,1 53775U 22111C   23104.12513707  .00002308  00000-0  16300-3 0  9996,2 53775  53.2177 355.4164 0001081  91.1498 268.9618 15.08846945 33583,6917.859,95.437,540.472,538.976,0.0
53775.0,STARLINK-4722,PAYLOAD,2023-04-15 02:50:59,15.088403,0.0001235,53.2167,350.9548,99.7789,260.3343,-1.2695e-05,-4.9e-06,0.0,0 STARLINK-4722,1 53775U 22111C   23105.11874916 -.00000490  00000-0 -12695-4 0  9994,2 53775  53.2167 350.9548 0001235  99.7789 260.3343 15.08840300 33733,6917.879,95.438,540.599,538.89,0.0
